ONEWEB-0331             
1 49198U 21083N   25019.69216389  .00000003  00000+0 -25089-4 0  9997
2 49198  87.9079  77.6068 0001980  90.8884 269.2475 13.18683792162330
ONEWEB-0333             
1 49199U 21083P   25019.62732297  .00000177  00000+0  44923-3 0  9990
2 49199  87.8894  62.3861 0001838 100.9464 259.1872 13.13468668163491
ONEWEB-0334             
1 49200U 21083Q   25019.93368843  .00000126  00000+0  27854-3 0  9997
2 49200  87.9248  16.5807 0001317 119.2126 240.9140 13.20770413169044
ONEWEB-0335             
1 49201U 21083R   25019.62256137  .00000068  00000+0  15254-3 0  9992
2 49201  87.8896  62.3755 0001841  88.4759 271.6581 13.13469128163500
ONEWEB-0336             
1 49202U 21083S   25019.66858680 -.00000227  00000+0 -65563-3 0  9995
2 49202  87.8893  62.3600 0001658  95.7934 264.3384 13.13468823163500
ONEWEB-0337             
1 49203U 21083T   25020.51592528 -.00000336  00000+0 -95482-3 0  9992
2 49203  87.8893  62.1893 0001972  93.6739 266.4615 13.13468423164914
ONEWEB-0338             
1 49204U 21083U   25020.01655074  .00000167  00000+0  37778-3 0  9998
2 49204  87.9256  16.5606 0001657 101.1532 258.9788 13.20767264170377
ONEWEB-0339             
1 49205U 21083V   25020.52716940 -.00000260  00000+0 -74779-3 0  9993
2 49205  87.8892  62.1786 0001970  96.8399 263.2955 13.13469370164892
